{"type": "FeatureCollection", "features": [ {"type": "Feature", "properties": {"norad_id": 42741, "name": "EUTELSAT 172B", "group": "eutelsat", "lat": -0.021661905484742096, "lon": -38.8130908295899, "alt_km": 35786.125360270984, "timestamp": "2025-12-21T03:56:50.525724+00:00", "meta": {"OBJECT_NAME": "EUTELSAT 172B", "OBJECT_ID": "2017-029B", "EPOCH": "2025-12-20T14:02:56.404320", "MEAN_MOTION": 1.00271431, "ECCENTRICITY": 2.99e-05, "INCLINATION": 0.0374, "RA_OF_ASC_NODE": 127.3356, "ARG_OF_PERICENTER": 281.9552, "MEAN_ANOMALY": 62.8625, "EPHEMERIS_TYPE": 0, "CLASSIFICATION_TYPE": "U", "NORAD_CAT_ID": 42741, "ELEMENT_SET_NO": 999, "REV_AT_EPOCH": 3194, "BSTAR": 0, "MEAN_MOTION_DOT": 1.8e-07, "MEAN_MOTION_DDOT": 0}, "tle": {"line1": "1 42741U 17029B   25354.58537505  .00000018  00000+0  00000+0 0  9991", "line2": "2 42741   0.0374 127.3356 0000299 281.9552  62.8625  1.00271431 31948"}}, "geometry": {"type": "Point", "coordinates": [-38.8130908295899, -0.021661905484742096]}}, {"type": "Feature", "properties": {"norad_id": 44334, "name": "EUTELSAT 7C", "group": "eutelsat", "lat": -0.01766161091865726, "lon": 156.13790427965733, "alt_km": 35787.79296696327, "timestamp": "2025-12-21T03:56:50.525735+00:00", "meta": {"OBJECT_NAME": "EUTELSAT 7C", "OBJECT_ID": "2019-034B", "EPOCH": "2025-12-20T06:24:55.272960", "MEAN_MOTION": 1.00270763, "ECCENTRICITY": 0.00030526, "INCLINATION": 0.0729, "RA_OF_ASC_NODE": 179.1336, "ARG_OF_PERICENTER": 73.4447, "MEAN_ANOMALY": 299.7414, "EPHEMERIS_TYPE": 0, "CLASSIFICATION_TYPE": "U", "NORAD_CAT_ID": 44334, "ELEMENT_SET_NO": 999, "REV_AT_EPOCH": 504, "BSTAR": 0, "MEAN_MOTION_DOT": 7.2e-07, "MEAN_MOTION_DDOT": 0}, "tle": {"line1": "1 44334U 19034B   25354.26730640  .00000072  00000+0  00000+0 0  9999", "line2": "2 44334   0.0729 179.1336 0003052  73.4447 299.7414  1.00270763  5048"}}, "geometry": {"type": "Point", "coordinates": [156.13790427965733, -0.01766161091865726]}}, {"type": "Feature", "properties": {"norad_id": 44624, "name": "EUTELSAT 5 WEST B", "group": "eutelsat", "lat": 0.026385555553975704, "lon": 144.16623258391726, "alt_km": 35793.60590845867, "timestamp": "2025-12-21T03:56:50.525746+00:00", "meta": {"OBJECT_NAME": "EUTELSAT 5 WEST B", "OBJECT_ID": "2019-067A", "EPOCH": "2025-12-20T18:20:30.152832", "MEAN_MOTION": 1.00271328, "ECCENTRICITY": 0.0002996, "INCLINATION": 0.067, "RA_OF_ASC_NODE": 335.5656, "ARG_OF_PERICENTER": 294.2858, "MEAN_ANOMALY": 89.8731, "EPHEMERIS_TYPE": 0, "CLASSIFICATION_TYPE": "U", "NORAD_CAT_ID": 44624, "ELEMENT_SET_NO": 999, "REV_AT_EPOCH": 2264, "BSTAR": 0, "MEAN_MOTION_DOT": -1.9e-07, "MEAN_MOTION_DDOT": 0}, "tle": {"line1": "1 44624U 19067A   25354.76423788 -.00000019  00000+0  00000+0 0  9996", "line2": "2 44624   0.0670 335.5656 0002996 294.2858  89.8731  1.00271328 22646"}}, "geometry": {"type": "Point", "coordinates": [144.16623258391726, 0.026385555553975704]}}, {"type": "Feature", "properties": {"norad_id": 45027, "name": "EUTELSAT KONNECT", "group": "eutelsat", "lat": 0.07092225884063344, "lon": 156.37477026280354, "alt_km": 35790.16207048532, "timestamp": "2025-12-21T03:56:50.525757+00:00", "meta": {"OBJECT_NAME": "EUTELSAT KONNECT", "OBJECT_ID": "2020-005B", "EPOCH": "2025-12-20T06:25:02.761248", "MEAN_MOTION": 1.00269751, "ECCENTRICITY": 0.00013058, "INCLINATION": 0.0718, "RA_OF_ASC_NODE": 94.8547, "ARG_OF_PERICENTER": 192.1408, "MEAN_ANOMALY": 265.5721, "EPHEMERIS_TYPE": 0, "CLASSIFICATION_TYPE": "U", "NORAD_CAT_ID": 45027, "ELEMENT_SET_NO": 999, "REV_AT_EPOCH": 2254, "BSTAR": 0, "MEAN_MOTION_DOT": 7.3e-07, "MEAN_MOTION_DDOT": 0}, "tle": {"line1": "1 45027U 20005B   25354.26739307  .00000073  00000+0  00000+0 0  9999", "line2": "2 45027   0.0718  94.8547 0001305 192.1408 265.5721  1.00269751 22549"}}, "geometry": {"type": "Point", "coordinates": [156.37477026280354, 0.07092225884063344]}}, {"type": "Feature", "properties": {"norad_id": 49056, "name": "EUTELSAT QUANTUM", "group": "eutelsat", "lat": 0.0036606699724893283, "lon": -163.14216613280794, "alt_km": 35784.108970970345, "timestamp": "2025-12-21T03:56:50.525768+00:00", "meta": {"OBJECT_NAME": "EUTELSAT QUANTUM", "OBJECT_ID": "2021-069B", "EPOCH": "2025-12-20T17:47:21.490944", "MEAN_MOTION": 1.00272163, "ECCENTRICITY": 0.0003338, "INCLINATION": 0.02, "RA_OF_ASC_NODE": 36.0608, "ARG_OF_PERICENTER": 243.5256, "MEAN_ANOMALY": 124.5294, "EPHEMERIS_TYPE": 0, "CLASSIFICATION_TYPE": "U", "NORAD_CAT_ID": 49056, "ELEMENT_SET_NO": 999, "REV_AT_EPOCH": 1613, "BSTAR": 0, "MEAN_MOTION_DOT": 1.49e-06, "MEAN_MOTION_DDOT": 0}, "tle": {"line1": "1 49056U 21069B   25354.74122096  .00000149  00000+0  00000+0 0  9994", "line2": "2 49056   0.0200  36.0608 0003338 243.5256 124.5294  1.00272163 16135"}}, "geometry": {"type": "Point", "coordinates": [-163.14216613280794, 0.0036606699724893283]}}, {"type": "Feature", "properties": {"norad_id": 53765, "name": "EUTELSAT KONNECT VHTS", "group": "eutelsat", "lat": 0.06088706383042334, "lon": 151.9397966126771, "alt_km": 35783.76838282603, "timestamp": "2025-12-21T03:56:50.525778+00:00", "meta": {"OBJECT_NAME": "EUTELSAT KONNECT VHTS", "OBJECT_ID": "2022-110A", "EPOCH": "2025-12-20T03:48:38.814048", "MEAN_MOTION": 1.00276689, "ECCENTRICITY": 0.00023926, "INCLINATION": 0.0642, "RA_OF_ASC_NODE": 98.8087, "ARG_OF_PERICENTER": 137.8855, "MEAN_ANOMALY": 272.2232, "EPHEMERIS_TYPE": 0, "CLASSIFICATION_TYPE": "U", "NORAD_CAT_ID": 53765, "ELEMENT_SET_NO": 999, "REV_AT_EPOCH": 503, "BSTAR": 0, "MEAN_MOTION_DOT": 4.2e-07, "MEAN_MOTION_DDOT": 0}, "tle": {"line1": "1 53765U 22110A   25354.15878257  .00000042  00000+0  00000+0 0  9998", "line2": "2 53765   0.0642  98.8087 0002392 137.8855 272.2232  1.00276689  5030"}}, "geometry": {"type": "Point", "coordinates": [151.9397966126771, 0.06088706383042334]}}, {"type": "Feature", "properties": {"norad_id": 54048, "name": "EUTELSAT HOTBIRD 13F", "group": "eutelsat", "lat": -0.026846426240581776, "lon": 162.19594309199456, "alt_km": 35795.12234251271, "timestamp": "2025-12-21T03:56:50.525789+00:00", "meta": {"OBJECT_NAME": "EUTELSAT HOTBIRD 13F", "OBJECT_ID": "2022-134A", "EPOCH": "2025-12-20T04:43:57.443232", "MEAN_MOTION": 1.00272198, "ECCENTRICITY": 0.0002383, "INCLINATION": 0.0482, "RA_OF_ASC_NODE": 295.6006, "ARG_OF_PERICENTER": 68.8406, "MEAN_ANOMALY": 168.5765, "EPHEMERIS_TYPE": 0, "CLASSIFICATION_TYPE": "U", "NORAD_CAT_ID": 54048, "ELEMENT_SET_NO": 999, "REV_AT_EPOCH": 1158, "BSTAR": 0, "MEAN_MOTION_DOT": 1.11e-06, "MEAN_MOTION_DDOT": 0}, "tle": {"line1": "1 54048U 22134A   25354.19719263  .00000111  00000+0  00000+0 0  9991", "line2": "2 54048   0.0482 295.6006 0002383  68.8406 168.5765  1.00272198 11586"}}, "geometry": {"type": "Point", "coordinates": [162.19594309199456, -0.026846426240581776]}}, {"type": "Feature", "properties": {"norad_id": 54225, "name": "EUTELSAT HOTBIRD 13G", "group": "eutelsat", "lat": -0.024970182642625502, "lon": 162.18065216453152, "alt_km": 35778.4321985595, "timestamp": "2025-12-21T03:56:50.525800+00:00", "meta": {"OBJECT_NAME": "EUTELSAT HOTBIRD 13G", "OBJECT_ID": "2022-146A", "EPOCH": "2025-12-19T18:27:37.056960", "MEAN_MOTION": 1.0027241, "ECCENTRICITY": 0.00017892, "INCLINATION": 0.0515, "RA_OF_ASC_NODE": 225.8744, "ARG_OF_PERICENTER": 308.1908, "MEAN_ANOMALY": 204.4423, "EPHEMERIS_TYPE": 0, "CLASSIFICATION_TYPE": "U", "NORAD_CAT_ID": 54225, "ELEMENT_SET_NO": 999, "REV_AT_EPOCH": 566, "BSTAR": 0, "MEAN_MOTION_DOT": 1.12e-06, "MEAN_MOTION_DDOT": 0}, "tle": {"line1": "1 54225U 22146A   25353.76917890  .00000112  00000+0  00000+0 0  9990", "line2": "2 54225   0.0515 225.8744 0001789 308.1908 204.4423  1.00272410  5660"}}, "geometry": {"type": "Point", "coordinates": [162.18065216453152, -0.024970182642625502]}}, {"type": "Feature", "properties": {"norad_id": 54259, "name": "EUTELSAT 10B", "group": "eutelsat", "lat": 0.05905502549057427, "lon": 159.20344213163153, "alt_km": 35784.02896449113, "timestamp": "2025-12-21T03:56:50.525810+00:00", "meta": {"OBJECT_NAME": "EUTELSAT 10B", "OBJECT_ID": "2022-157A", "EPOCH": "2025-12-20T18:24:52.236000", "MEAN_MOTION": 1.00272694, "ECCENTRICITY": 7.59e-05, "INCLINATION": 0.0616, "RA_OF_ASC_NODE": 96.748, "ARG_OF_PERICENTER": 5.7344, "MEAN_ANOMALY": 273.3366, "EPHEMERIS_TYPE": 0, "CLASSIFICATION_TYPE": "U", "NORAD_CAT_ID": 54259, "ELEMENT_SET_NO": 999, "REV_AT_EPOCH": 1123, "BSTAR": 0, "MEAN_MOTION_DOT": 9.2e-07, "MEAN_MOTION_DDOT": 0}, "tle": {"line1": "1 54259U 22157A   25354.76727125  .00000092  00000+0  00000+0 0  9997", "line2": "2 54259   0.0616  96.7480 0000759   5.7344 273.3366  1.00272694 11236"}}, "geometry": {"type": "Point", "coordinates": [159.20344213163153, 0.05905502549057427]}}, {"type": "Feature", "properties": {"norad_id": 59346, "name": "EUTELSAT 36D", "group": "eutelsat", "lat": 0.008080822017983418, "lon": -174.96339232247706, "alt_km": 35788.525151414084, "timestamp": "2025-12-21T03:56:50.525821+00:00", "meta": {"OBJECT_NAME": "EUTELSAT 36D", "OBJECT_ID": "2024-059A", "EPOCH": "2025-12-19T22:17:14.700768", "MEAN_MOTION": 1.0027216, "ECCENTRICITY": 6.505e-05, "INCLINATION": 0.0247, "RA_OF_ASC_NODE": 22.0433, "ARG_OF_PERICENTER": 347.9809, "MEAN_ANOMALY": 88.8998, "EPHEMERIS_TYPE": 0, "CLASSIFICATION_TYPE": "U", "NORAD_CAT_ID": 59346, "ELEMENT_SET_NO": 999, "REV_AT_EPOCH": 635, "BSTAR": 0, "MEAN_MOTION_DOT": 0, "MEAN_MOTION_DDOT": 0}, "tle": {"line1": "1 59346U 24059A   25353.92864237  .00000000  00000+0  00000+0 0  9994", "line2": "2 59346   0.0247  22.0433 0000650 347.9809  88.8998  1.00272160  6350"}}, "geometry": {"type": "Point", "coordinates": [-174.96339232247706, 0.008080822017983418]}}]}